NORAD_CAT_ID,OBJECT_NAME,OBJECT_TYPE,EPOCH,MEAN_MOTION,ECCENTRICITY,INCLINATION,RA_OF_ASC_NODE,ARG_OF_PERICENTER,MEAN_ANOMALY,BSTAR,MEAN_MOTION_DOT,MEAN_MOTION_DDOT,TLE_LINE0,TLE_LINE1,TLE_LINE2,SEMIMAJOR_AXIS,PERIOD,APOGEE,PERIGEE,DECAYED
51729.0,STARLINK-3523,PAYLOAD,2023-05-03 22:06:35,15.08841247,0.0002493,53.2139,311.3233,51.0477,309.0737,1.726e-05,-1.4e-07,0.0,0 STARLINK-3523,1 51729U 22016R   23123.92124082 -.00000014  00000-0  17260-4 0  9990,2 51729  53.2139 311.3233 0002493  51.0477 309.0737 15.08841247 66446,6917.877,95.437,541.466,538.017,0.0
51729.0,STARLINK-3523,PAYLOAD,2023-05-04 12:25:03,15.08836012,0.0002241,53.2141,308.6454,59.7885,300.3329,1.46e-07,-2.86e-06,0.0,0 STARLINK-3523,1 51729U 22016R   23124.51740396 -.00000286  00000-0  14600-6 0  9996,2 51729  53.2141 308.6454 0002241  59.7885 300.3329 15.08836012 67662,6917.893,95.438,541.308,538.207,0.0
51729.0,STARLINK-3523,PAYLOAD,2023-05-04 18:46:35,15.0884461,0.0002289,53.2137,307.4564,58.0502,302.0712,-2.8494e-05,-7.42e-06,0.0,0 STARLINK-3523,1 51729U 22016R   23124.78235959 -.00000742  00000-0 -28494-4 0  9991,2 51729  53.2137 307.4564 0002289  58.0502 302.0712 15.08844610 67709,6917.866,95.437,541.315,538.148,0.0
51729.0,STARLINK-3523,PAYLOAD,2023-05-05 15:26:37,15.0883437,0.0002239,53.2132,303.591,55.2326,304.8876,1.9553e-05,2.3e-07,0.0,0 STARLINK-3523,1 51729U 22016R   23125.64348503  .00000023  00000-0  19553-4 0  9993,2 51729  53.2132 303.5910 0002239  55.2326 304.8876 15.08834370 67831,6917.898,95.438,541.312,538.214,0.0
51729.0,STARLINK-3523,PAYLOAD,2023-05-05 20:12:46,15.08841555,0.0002202,53.2135,302.6995,55.4841,304.6359,1.0247e-05,-1.25e-06,0.0,0 STARLINK-3523,1 51729U 22016R   23125.84220157 -.00000125  00000-0  10247-4 0  9994,2 51729  53.2135 302.6995 0002202  55.4841 304.6359 15.08841555 66736,6917.876,95.437,541.264,538.217,0.0
51729.0,STARLINK-3523,PAYLOAD,2023-05-06 12:06:38,15.088344,0.0002268,53.2134,299.7259,56.4718,303.649,1.4575e-05,-5.6e-07,0.0,0 STARLINK-3523,1 51729U 22016R   23126.50460763 -.00000056  00000-0  14575-4 0  9998,2 51729  53.2134 299.7259 0002268  56.4718 303.6490 15.08834400 66837,6917.898,95.438,541.331,538.194,0.0
51729.0,STARLINK-3523,PAYLOAD,2023-05-07 04:00:29,15.08838078,0.0002261,53.2134,296.7521,55.739,304.3816,5.8686e-05,6.46e-06,0.0,0 STARLINK-3523,1 51729U 22016R   23127.16700455  .00000646  00000-0  58686-4 0  9991,2 51729  53.2134 296.7521 0002261  55.7390 304.3816 15.08838078 68069,6917.886,95.438,541.315,538.187,0.0
51729.0,STARLINK-3523,PAYLOAD,2023-05-07 16:43:35,15.08829561,0.0002052,53.2127,294.3749,55.5876,304.531,-1.9657e-05,-6.01e-06,0.0,0 STARLINK-3523,1 51729U 22016R   23127.69693436 -.00000601  00000-0 -19657-4 0  9997,2 51729  53.2127 294.3749 0002052  55.5876 304.5310 15.08829561 68149,6917.912,95.438,541.197,538.358,0.0
51729.0,STARLINK-3523,PAYLOAD,2023-05-08 03:51:16,15.08838071,0.0002064,53.2129,292.2924,62.7949,297.3253,-2.4922e-05,-6.85e-06,0.0,0 STARLINK-3523,1 51729U 22016R   23128.16060998 -.00000685  00000-0 -24922-4 0  9994,2 51729  53.2129 292.2924 0002064  62.7949 297.3253 15.08838071 68216,6917.886,95.438,541.179,538.323,0.0
51729.0,STARLINK-3523,PAYLOAD,2023-05-08 18:09:44,15.08841531,0.000199,53.2131,289.6161,60.879,299.2401,1.3456e-05,-7.4e-07,0.0,0 STARLINK-3523,1 51729U 22016R   23128.75676814 -.00000074  00000-0  13456-4 0  9990,2 51729  53.2131 289.6161 0001990  60.8790 299.2401 15.08841531 67177,6917.876,95.437,541.117,538.364,0.0
51729.0,STARLINK-3523,PAYLOAD,2023-05-10 03:32:50,15.08838403,0.0001872,53.2143,283.3744,70.9844,289.1351,6.9813e-05,8.23e-06,0.0,0 STARLINK-3523,1 51729U 22016R   23130.14781025  .00000823  00000-0  69813-4 0  9996,2 51729  53.2143 283.3744 0001872  70.9844 289.1351 15.08838403 67388,6917.885,95.438,541.045,538.455,0.0
51729.0,STARLINK-3523,PAYLOAD,2023-05-10 17:51:18,15.08846239,0.0001418,53.2141,280.6897,104.829,255.2859,7.6117e-06,-1.67e-06,0.0,0 STARLINK-3523,1 51729U 22016R   23130.74396503 -.00000167  00000-0  76117-5 0  9993,2 51729  53.2141 280.6897 0001418 104.8290 255.2859 15.08846239 67476,6917.861,95.437,540.707,538.745,0.0
51729.0,STARLINK-3523,PAYLOAD,2023-05-11 12:55:56,15.08841827,0.0001584,53.2139,277.1211,87.2772,272.8401,-4.1328e-05,-9.46e-06,0.0,0 STARLINK-3523,1 51729U 22016R   23131.53885047 -.00000946  00000-0 -41328-4 0  9998,2 51729  53.2139 277.1211 0001584  87.2772 272.8401 15.08841827 67596,6917.875,95.437,540.836,538.644,0.0
51729.0,STARLINK-3523,PAYLOAD,2023-05-11 16:06:42,15.08844849,0.0001478,53.2134,276.5294,74.2372,285.8783,-1.4195e-05,-5.14e-06,0.0,0 STARLINK-3523,1 51729U 22016R   23131.67132780 -.00000514  00000-0 -14195-4 0  9995,2 51729  53.2134 276.5294 0001478  74.2372 285.8783 15.08844849 67616,6917.866,95.437,540.753,538.708,0.0
51729.0,STARLINK-3523,PAYLOAD,2023-05-12 03:14:24,15.08839911,0.0001429,53.2133,274.4482,80.2046,279.9107,2.3206e-05,8.1e-07,0.0,0 STARLINK-3523,1 51729U 22016R   23132.13500835  .00000081  00000-0  23206-4 0  9997,2 51729  53.2133 274.4482 0001429  80.2046 279.9107 15.08839911 67687,6917.881,95.438,540.734,538.757,0.0
51729.0,STARLINK-3523,PAYLOAD,2023-05-12 15:57:30,15.08836875,0.0001377,53.2127,272.0699,82.4956,277.6193,-4.366e-05,-9.83e-06,0.0,0 STARLINK-3523,1 51729U 22016R   23132.66493373 -.00000983  00000-0 -43660-4 0  9992,2 51729  53.2127 272.0699 0001377  82.4956 277.6193 15.08836875 68890,6917.89,95.438,540.708,538.802,0.0
51729.0,STARLINK-3523,PAYLOAD,2023-05-13 12:37:30,15.08840038,0.0001234,53.2123,268.2041,86.4056,273.7077,2.6011e-05,1.26e-06,0.0,0 STARLINK-3523,1 51729U 22016R   23133.52604920  .00000126  00000-0  26011-4 0  9998,2 51729  53.2123 268.2041 0001234  86.4056 273.7077 15.08840038 67894,6917.88,95.438,540.599,538.892,0.0
51729.0,STARLINK-3523,PAYLOAD,2023-05-13 15:48:16,15.08845644,0.0001187,53.2128,267.6089,91.8099,268.3029,6.7241e-05,7.83e-06,0.0,0 STARLINK-3523,1 51729U 22016R   23133.65852426  .00000783  00000-0  67241-4 0  9997,2 51729  53.2128 267.6089 0001187  91.8099 268.3029 15.08845644 67916,6917.863,95.437,540.549,538.907,0.0
51729.0,STARLINK-3523,PAYLOAD,2023-05-14 01:20:35,15.08840356,0.0001113,53.2136,265.8235,90.4862,269.6258,-2.6512e-05,-7.1e-06,0.0,0 STARLINK-3523,1 51729U 22016R   23134.05596991 -.00000710  00000-0 -26512-4 0  9992,2 51729  53.2136 265.8235 0001113  90.4862 269.6258 15.08840356 69106,6917.879,95.438,540.514,538.974,0.0
51729.0,STARLINK-3523,PAYLOAD,2023-05-14 14:03:41,15.08829784,0.000115,53.2145,263.4463,97.3633,262.749,3.1692e-05,2.16e-06,0.0,0 STARLINK-3523,1 51729U 22016R   23134.58589557  .00000216  00000-0  31692-4 0  9994,2 51729  53.2145 263.4463 0001150  97.3633 262.7490 15.08829784 69188,6917.912,95.438,540.572,538.981,0.0
51729.0,STARLINK-3523,PAYLOAD,2023-05-14 15:39:04,15.08835836,0.0001138,53.2147,263.1484,91.6028,268.5095,-2.999e-05,-7.65e-06,0.0,0 STARLINK-3523,1 51729U 22016R   23134.65213457 -.00000765  00000-0 -29990-4 0  9994,2 51729  53.2147 263.1484 0001138  91.6028 268.5095 15.08835836 68067,6917.893,95.438,540.545,538.971,0.0
51729.0,STARLINK-3523,PAYLOAD,2023-05-15 12:19:05,15.08792754,0.0001271,53.2144,259.283,94.5046,265.6092,0.0005042,7.735e-05,0.0,0 STARLINK-3523,1 51729U 22016R   23135.51326037  .00007735  00000-0  50420-3 0  9992,2 51729  53.2144 259.2830 0001271  94.5046 265.6092 15.08792754 68195,6918.025,95.441,540.769,539.011,0.0
51729.0,STARLINK-3523,PAYLOAD,2023-05-15 15:29:52,15.08783729,0.0001275,53.2141,258.6894,97.9229,262.1907,0.00066176,0.00010244,0.0,0 STARLINK-3523,1 51729U 22016R   23135.64574329  .00010244  00000-0  66176-3 0  9999,2 51729  53.2141 258.6894 0001275  97.9229 262.1907 15.08783729 69346,6918.052,95.441,540.799,539.035,0.0
51729.0,STARLINK-3523,PAYLOAD,2023-05-16 07:23:42,15.08835905,0.0001088,53.2148,255.7158,118.829,241.2811,5.2161e-05,5.42e-06,0.0,0 STARLINK-3523,1 51729U 22016R   23136.30813501  .00000542  00000-0  52161-4 0  9991,2 51729  53.2148 255.7158 0001088 118.8290 241.2811 15.08835905 69444,6917.893,95.438,540.511,539.005,0.0
51729.0,STARLINK-3523,PAYLOAD,2023-05-16 12:09:52,15.08832119,7.4e-05,53.2132,254.8214,104.2502,255.8572,4.6832e-05,4.58e-06,0.0,0 STARLINK-3523,1 51729U 22016R   23136.50685820  .00000458  00000-0  46832-4 0  9998,2 51729  53.2132 254.8214 0000740 104.2502 255.8572 15.08832119 68346,6917.904,95.438,540.281,539.258,0.0
51729.0,STARLINK-3523,PAYLOAD,2023-05-17 07:14:30,15.08820818,7.14e-05,53.2134,251.2527,90.9061,269.2013,0.00022789,3.339e-05,0.0,0 STARLINK-3523,1 51729U 22016R   23137.30174097  .00003339  00000-0  22789-3 0  9991,2 51729  53.2134 251.2527 0000714  90.9061 269.2013 15.08820818 69598,6917.939,95.439,540.298,539.31,0.0
51729.0,STARLINK-3523,PAYLOAD,2023-05-17 15:11:25,15.08842466,7.44e-05,53.2134,249.7658,82.2261,277.8816,5.1676e-05,5.35e-06,0.0,0 STARLINK-3523,1 51729U 22016R   23137.63293415  .00000535  00000-0  51676-4 0  9996,2 51729  53.2134 249.7658 0000744  82.2261 277.8816 15.08842466 69649,6917.873,95.437,540.253,539.223,0.0
51729.0,STARLINK-3523,PAYLOAD,2023-05-18 00:43:44,15.08836231,8.59e-05,53.2136,247.9815,72.3481,287.7605,1.9647e-05,2.5e-07,0.0,0 STARLINK-3523,1 51729U 22016R   23138.03037962  .00000025  00000-0  19647-4 0  9990,2 51729  53.2136 247.9815 0000859  72.3481 287.7605 15.08836231 69703,6917.892,95.438,540.351,539.163,0.0
51729.0,STARLINK-3523,PAYLOAD,2023-05-18 13:26:50,15.08834054,8.36e-05,53.2134,245.6021,71.8469,288.2614,-1.3125e-05,-4.97e-06,0.0,0 STARLINK-3523,1 51729U 22016R   23138.56030347 -.00000497  00000-0 -13125-4 0  9998,2 51729  53.2134 245.6021 0000836  71.8469 288.2614 15.08834054 68650,6917.899,95.438,540.342,539.185,0.0
51729.0,STARLINK-3523,PAYLOAD,2023-05-19 11:42:13,15.08840796,8e-05,53.2132,241.4386,70.1736,289.9342,9.3593e-05,1.202e-05,0.0,0 STARLINK-3523,1 51729U 22016R   23139.48765526  .00001202  00000-0  93593-4 0  9994,2 51729  53.2132 241.4386 0000800  70.1736 289.9342 15.08840796 69923,6917.878,95.438,540.296,539.19,0.0
